{"type": "FeatureCollection", "features": [ {"type": "Feature", "properties": {"norad_id": 31429, "name": "FENGYUN 1C DEB", "group": "fengyun-1c-debris", "lat": 52.21437617200136, "lon": 28.317863202269344, "alt_km": 801.2138374326587, "timestamp": "2025-12-16T19:34:24.550135+00:00", "meta": {"OBJECT_NAME": "FENGYUN 1C DEB", "OBJECT_ID": "1999-025BTR", "EPOCH": "2025-12-15T09:38:26.370240", "MEAN_MOTION": 14.22581348, "ECCENTRICITY": 0.00145941, "INCLINATION": 98.6902, "RA_OF_ASC_NODE": 38.3015, "ARG_OF_PERICENTER": 56.779, "MEAN_ANOMALY": 319.6141, "EPHEMERIS_TYPE": 0, "CLASSIFICATION_TYPE": "U", "NORAD_CAT_ID": 31429, "ELEMENT_SET_NO": 999, "REV_AT_EPOCH": 95991, "BSTAR": 0.00086574107, "MEAN_MOTION_DOT": 1.893e-05, "MEAN_MOTION_DDOT": 0}, "tle": {"line1": "1 31429U 99025BTR 25349.40169410  .00001893  00000+0  86574-3 0  9995", "line2": "2 31429  98.6902  38.3015 0014594  56.7790 319.6141 14.22581348959918"}}, "geometry": {"type": "Point", "coordinates": [28.317863202269344, 52.21437617200136]}}, {"type": "Feature", "properties": {"norad_id": 31430, "name": "FENGYUN 1C DEB", "group": "fengyun-1c-debris", "lat": -0.26004745557568676, "lon": 53.86898939235405, "alt_km": 792.8425605276661, "timestamp": "2025-12-16T19:34:24.550145+00:00", "meta": {"OBJECT_NAME": "FENGYUN 1C DEB", "OBJECT_ID": "1999-025BTS", "EPOCH": "2025-12-15T09:57:27.665856", "MEAN_MOTION": 14.25616311, "ECCENTRICITY": 0.00267028, "INCLINATION": 98.7438, "RA_OF_ASC_NODE": 52.4325, "ARG_OF_PERICENTER": 34.5965, "MEAN_ANOMALY": 340.9837, "EPHEMERIS_TYPE": 0, "CLASSIFICATION_TYPE": "U", "NORAD_CAT_ID": 31430, "ELEMENT_SET_NO": 999, "REV_AT_EPOCH": 96156, "BSTAR": 0.0007935415, "MEAN_MOTION_DOT": 1.842e-05, "MEAN_MOTION_DDOT": 0}, "tle": {"line1": "1 31430U 99025BTS 25349.41490354  .00001842  00000+0  79354-3 0  9994", "line2": "2 31430  98.7438  52.4325 0026702  34.5965 340.9837 14.25616311961563"}}, "geometry": {"type": "Point", "coordinates": [53.86898939235405, -0.26004745557568676]}}, {"type": "Feature", "properties": {"norad_id": 31431, "name": "FENGYUN 1C DEB", "group": "fengyun-1c-debris", "lat": -76.165923501266, "lon": -83.65891581819108, "alt_km": 982.7012554865751, "timestamp": "2025-12-16T19:34:24.550155+00:00", "meta": {"OBJECT_NAME": "FENGYUN 1C DEB", "OBJECT_ID": "1999-025BTT", "EPOCH": "2025-12-13T14:56:21.998976", "MEAN_MOTION": 14.03085979, "ECCENTRICITY": 0.01331698, "INCLINATION": 98.5394, "RA_OF_ASC_NODE": 235.7445, "ARG_OF_PERICENTER": 92.8803, "MEAN_ANOMALY": 268.7614, "EPHEMERIS_TYPE": 0, "CLASSIFICATION_TYPE": "U", "NORAD_CAT_ID": 31431, "ELEMENT_SET_NO": 999, "REV_AT_EPOCH": 94544, "BSTAR": 0.0020056089, "MEAN_MOTION_DOT": 3.335e-05, "MEAN_MOTION_DDOT": 0}, "tle": {"line1": "1 31431U 99025BTT 25347.62247684  .00003335  00000+0  20056-2 0  9995", "line2": "2 31431  98.5394 235.7445 0133169  92.8803 268.7614 14.03085979945441"}}, "geometry": {"type": "Point", "coordinates": [-83.65891581819108, -76.165923501266]}}, {"type": "Feature", "properties": {"norad_id": 31433, "name": "FENGYUN 1C DEB", "group": "fengyun-1c-debris", "lat": 3.246213460855082, "lon": 74.60106417478325, "alt_km": 876.5728570280853, "timestamp": "2025-12-16T19:34:24.550165+00:00", "meta": {"OBJECT_NAME": "FENGYUN 1C DEB", "OBJECT_ID": "1999-025BTV", "EPOCH": "2025-12-14T16:21:03.091392", "MEAN_MOTION": 14.2545547, "ECCENTRICITY": 0.01002939, "INCLINATION": 98.4103, "RA_OF_ASC_NODE": 252.0731, "ARG_OF_PERICENTER": 23.8359, "MEAN_ANOMALY": 6.1837, "EPHEMERIS_TYPE": 0, "CLASSIFICATION_TYPE": "U", "NORAD_CAT_ID": 31433, "ELEMENT_SET_NO": 999, "REV_AT_EPOCH": 95580, "BSTAR": 0.0021995356, "MEAN_MOTION_DOT": 5.436e-05, "MEAN_MOTION_DDOT": 0}, "tle": {"line1": "1 31433U 99025BTV 25348.68128578  .00005436  00000+0  21995-2 0  9991", "line2": "2 31433  98.4103 252.0731 0100293  23.8359   6.1837 14.25455470955805"}}, "geometry": {"type": "Point", "coordinates": [74.60106417478325, 3.246213460855082]}}, {"type": "Feature", "properties": {"norad_id": 31435, "name": "FENGYUN 1C DEB", "group": "fengyun-1c-debris", "lat": -54.528207776553906, "lon": 175.8682392930283, "alt_km": 797.7775002042335, "timestamp": "2025-12-16T19:34:24.550175+00:00", "meta": {"OBJECT_NAME": "FENGYUN 1C DEB", "OBJECT_ID": "1999-025BTX", "EPOCH": "2025-12-15T10:47:28.349088", "MEAN_MOTION": 14.53444084, "ECCENTRICITY": 0.01491551, "INCLINATION": 99.0362, "RA_OF_ASC_NODE": 161.4908, "ARG_OF_PERICENTER": 171.8385, "MEAN_ANOMALY": 188.5288, "EPHEMERIS_TYPE": 0, "CLASSIFICATION_TYPE": "U", "NORAD_CAT_ID": 31435, "ELEMENT_SET_NO": 999, "REV_AT_EPOCH": 98412, "BSTAR": 0.0002134346, "MEAN_MOTION_DOT": 9.69e-06, "MEAN_MOTION_DDOT": 0}, "tle": {"line1": "1 31435U 99025BTX 25349.44963367  .00000969  00000+0  21343-3 0  9995", "line2": "2 31435  99.0362 161.4908 0149155 171.8385 188.5288 14.53444084984125"}}, "geometry": {"type": "Point", "coordinates": [175.8682392930283, -54.528207776553906]}}, {"type": "Feature", "properties": {"norad_id": 31436, "name": "FENGYUN 1C DEB", "group": "fengyun-1c-debris", "lat": 49.516420044011625, "lon": 34.84698056604368, "alt_km": 585.7469144878951, "timestamp": "2025-12-16T19:34:24.550185+00:00", "meta": {"OBJECT_NAME": "FENGYUN 1C DEB", "OBJECT_ID": "1999-025BTY", "EPOCH": "2025-12-15T01:52:46.853184", "MEAN_MOTION": 14.93942587, "ECCENTRICITY": 0.00425224, "INCLINATION": 98.8819, "RA_OF_ASC_NODE": 202.3284, "ARG_OF_PERICENTER": 235.0056, "MEAN_ANOMALY": 277.1148, "EPHEMERIS_TYPE": 0, "CLASSIFICATION_TYPE": "U", "NORAD_CAT_ID": 31436, "ELEMENT_SET_NO": 999, "REV_AT_EPOCH": 96911, "BSTAR": 0.0028110385, "MEAN_MOTION_DOT": 0.00030505, "MEAN_MOTION_DDOT": 0}, "tle": {"line1": "1 31436U 99025BTY 25349.07832006  .00030505  00000+0  28110-2 0  9997", "line2": "2 31436  98.8819 202.3284 0042522 235.0056 277.1148 14.93942587969117"}}, "geometry": {"type": "Point", "coordinates": [34.84698056604368, 49.516420044011625]}}, {"type": "Feature", "properties": {"norad_id": 31437, "name": "FENGYUN 1C DEB", "group": "fengyun-1c-debris", "lat": -25.220076441940673, "lon": 76.25707215424092, "alt_km": 757.1883969992159, "timestamp": "2025-12-16T19:34:24.550197+00:00", "meta": {"OBJECT_NAME": "FENGYUN 1C DEB", "OBJECT_ID": "1999-025BTZ", "EPOCH": "2025-12-14T04:26:04.938432", "MEAN_MOTION": 14.42542216, "ECCENTRICITY": 0.00157691, "INCLINATION": 98.8649, "RA_OF_ASC_NODE": 69.3084, "ARG_OF_PERICENTER": 243.8583, "MEAN_ANOMALY": 116.0983, "EPHEMERIS_TYPE": 0, "CLASSIFICATION_TYPE": "U", "NORAD_CAT_ID": 31437, "ELEMENT_SET_NO": 999, "REV_AT_EPOCH": 96531, "BSTAR": 0.002431224, "MEAN_MOTION_DOT": 8.038e-05, "MEAN_MOTION_DDOT": 0}, "tle": {"line1": "1 31437U 99025BTZ 25348.18477938  .00008038  00000+0  24312-2 0  9994", "line2": "2 31437  98.8649  69.3084 0015769 243.8583 116.0983 14.42542216965318"}}, "geometry": {"type": "Point", "coordinates": [76.25707215424092, -25.220076441940673]}}, {"type": "Feature", "properties": {"norad_id": 31439, "name": "FENGYUN 1C DEB", "group": "fengyun-1c-debris", "lat": 26.481526338781613, "lon": -178.80679007350278, "alt_km": 807.602831870684, "timestamp": "2025-12-16T19:34:24.550208+00:00", "meta": {"OBJECT_NAME": "FENGYUN 1C DEB", "OBJECT_ID": "1999-025BUB", "EPOCH": "2025-12-15T06:49:39.152352", "MEAN_MOTION": 13.95583297, "ECCENTRICITY": 0.01379522, "INCLINATION": 98.9167, "RA_OF_ASC_NODE": 355.2259, "ARG_OF_PERICENTER": 154.8278, "MEAN_ANOMALY": 230.0743, "EPHEMERIS_TYPE": 0, "CLASSIFICATION_TYPE": "U", "NORAD_CAT_ID": 31439, "ELEMENT_SET_NO": 999, "REV_AT_EPOCH": 63268, "BSTAR": 0.00052246929, "MEAN_MOTION_DOT": 7.28e-06, "MEAN_MOTION_DDOT": 0}, "tle": {"line1": "1 31439U 99025BUB 25349.28448093  .00000728  00000+0  52247-3 0  9995", "line2": "2 31439  98.9167 355.2259 0137952 154.8278 230.0743 13.95583297632681"}}, "geometry": {"type": "Point", "coordinates": [-178.80679007350278, 26.481526338781613]}}, {"type": "Feature", "properties": {"norad_id": 31440, "name": "FENGYUN 1C DEB", "group": "fengyun-1c-debris", "lat": -23.249627891052505, "lon": 82.66616640262454, "alt_km": 748.4898229714563, "timestamp": "2025-12-16T19:34:24.550218+00:00", "meta": {"OBJECT_NAME": "FENGYUN 1C DEB", "OBJECT_ID": "1999-025BUC", "EPOCH": "2025-12-15T11:55:31.436832", "MEAN_MOTION": 14.36731, "ECCENTRICITY": 0.00369281, "INCLINATION": 98.7436, "RA_OF_ASC_NODE": 77.5363, "ARG_OF_PERICENTER": 333.551, "MEAN_ANOMALY": 26.379, "EPHEMERIS_TYPE": 0, "CLASSIFICATION_TYPE": "U", "NORAD_CAT_ID": 31440, "ELEMENT_SET_NO": 999, "REV_AT_EPOCH": 96365, "BSTAR": 0.0013129736, "MEAN_MOTION_DOT": 3.857e-05, "MEAN_MOTION_DDOT": 0}, "tle": {"line1": "1 31440U 99025BUC 25349.49689163  .00003857  00000+0  13130-2 0  9998", "line2": "2 31440  98.7436  77.5363 0036928 333.5510  26.3790 14.36731000963651"}}, "geometry": {"type": "Point", "coordinates": [82.66616640262454, -23.249627891052505]}}, {"type": "Feature", "properties": {"norad_id": 31441, "name": "FENGYUN 1C DEB", "group": "fengyun-1c-debris", "lat": 3.2275821425761464, "lon": 34.772408408387356, "alt_km": 705.9092454195279, "timestamp": "2025-12-16T19:34:24.550230+00:00", "meta": {"OBJECT_NAME": "FENGYUN 1C DEB", "OBJECT_ID": "1999-025BUD", "EPOCH": "2025-12-15T10:13:03.179136", "MEAN_MOTION": 14.75381813, "ECCENTRICITY": 0.01026081, "INCLINATION": 99.3127, "RA_OF_ASC_NODE": 212.6439, "ARG_OF_PERICENTER": 327.1527, "MEAN_ANOMALY": 32.3327, "EPHEMERIS_TYPE": 0, "CLASSIFICATION_TYPE": "U", "NORAD_CAT_ID": 31441, "ELEMENT_SET_NO": 999, "REV_AT_EPOCH": 64130, "BSTAR": 0.0032754651, "MEAN_MOTION_DOT": 0.00024224, "MEAN_MOTION_DDOT": 0}, "tle": {"line1": "1 31441U 99025BUD 25349.42573124  .00024224  00000+0  32755-2 0  9996", "line2": "2 31441  99.3127 212.6439 0102608 327.1527  32.3327 14.75381813641302"}}, "geometry": {"type": "Point", "coordinates": [34.772408408387356, 3.2275821425761464]}}]}